{
    "links": {
        "self": "http://www.neowsapp.com/rest/v1/neo/3744832?api_key=iIulBulltgU6a56xZRHN4H3l9WmuAYTsLGpBGhQ2"
    },
    "id": "3744832",
    "neo_reference_id": "3744832",
    "name": "(2016 DU1)",
    "designation": "2016 DU1",
    "nasa_jpl_url": "http://ssd.jpl.nasa.gov/sbdb.cgi?sstr=3744832",
    "absolute_magnitude_h": 26.3,
    "estimated_diameter": {
        "kilometers": {
            "estimated_diameter_min": 0.0146067964,
            "estimated_diameter_max": 0.0326617897
        },
        "meters": {
            "estimated_diameter_min": 14.6067964271,
            "estimated_diameter_max": 32.6617897446
        },
        "miles": {
            "estimated_diameter_min": 0.0090762397,
            "estimated_diameter_max": 0.020295089
        },
        "feet": {
            "estimated_diameter_min": 47.92256199,
            "estimated_diameter_max": 107.1581062656
        }
    },
    "is_potentially_hazardous_asteroid": false,
    "close_approach_data": [
        {
            "close_approach_date": "2013-05-06",
            "close_approach_date_full": "2013-May-06 01:46",
            "epoch_date_close_approach": 1367804760000,
            "relative_velocity": {
                "kilometers_per_second": "14.2413680446",
                "kilometers_per_hour": "51268.924960537",
                "miles_per_hour": "31856.5161789514"
            },
            "miss_distance": {
                "astronomical": "0.247261191",
                "lunar": "96.184603299",
                "kilometers": "36989747.50726317",
                "miles": "22984363.301924946"
            },
            "orbiting_body": "Earth"
        },
        {
            "close_approach_date": "2016-03-03",
            "close_approach_date_full": "2016-Mar-03 21:08",
            "epoch_date_close_approach": 1457039280000,
            "relative_velocity": {
                "kilometers_per_second": "7.1914676886",
                "kilometers_per_hour": "25889.2836790869",
                "miles_per_hour": "16086.5940727082"
            },
            "miss_distance": {
                "astronomical": "0.0335219525",
                "lunar": "13.0400395225",
                "kilometers": "5014812.692241175",
                "miles": "3116060.113331215"
            },
            "orbiting_body": "Earth"
        },
        {
            "close_approach_date": "2019-01-25",
            "close_approach_date_full": "2019-Jan-25 03:12",
            "epoch_date_close_approach": 1548385920000,
            "relative_velocity": {
                "kilometers_per_second": "19.928412201",
                "kilometers_per_hour": "71742.2839236396",
                "miles_per_hour": "44577.8652524415"
            },
            "miss_distance": {
                "astronomical": "0.4317830485",
                "lunar": "167.9636058665",
                "kilometers": "64593824.357706695",
                "miles": "40136741.290454591"
            },
            "orbiting_body": "Earth"
        }
    ],
    "orbital_data": {
        "orbit_id": "6",
        "orbit_determination_date": "2017-04-06 08:28:03",
        "first_observation_date": "2016-02-27",
        "last_observation_date": "2016-03-04",
        "data_arc_in_days": 6,
        "observations_used": 45,
        "orbit_uncertainty": "8",
        "minimum_orbit_intersection": ".0211615",
        "jupiter_tisserand_invariant": "3.615",
        "epoch_osculation": "2457447.5",
        "eccentricity": ".5083881090923117",
        "semi_major_axis": "2.053645251290239",
        "inclination": "1.625086853624168",
        "ascending_node_longitude": "143.9665907612518",
        "orbital_period": "1074.945794097577",
        "perihelion_distance": "1.009596425240389",
        "perihelion_argument": "34.0341457372728",
        "aphelion_distance": "3.097694077340089",
        "perihelion_time": "2457462.821951157348",
        "mean_anomaly": "354.868669241805",
        "mean_motion": ".3349006079903982",
        "equinox": "J2000",
        "orbit_class": {
            "orbit_class_type": "APO",
            "orbit_class_description": "Near-Earth asteroid orbits which cross the Earth’s orbit similar to that of 1862 Apollo",
            "orbit_class_range": "a (semi-major axis) > 1.0 AU; q (perihelion) < 1.017 AU"
        }
    },
    "is_sentry_object": false
}